ASTROCAST-0403          
1 55111U 23001DG  26068.82333059  .00013959  00000+0  51317-3 0  9990
2 55111  97.5604 161.3228 0004771 338.0704  22.0330 15.28004949129377
STARLINK-31519          
1 59546U 24074N   26068.13468203 -.00010659  00000+0 -37859-3 0  9992
2 59546  43.0041 346.3010 0001515 297.9835  62.0863 15.27560711105933
